0 INMARSAT 2-F2 R/B(PAM-D)
1 21151U 91018C   13282.53740437  .00014665  00000-0  12054-2 0  7565
2 21151 023.2292 329.3984 4457275 105.7203 029.1598 06.59726510412510
0 INMARSAT 2-F2 R/B(PAM-D)
1 21151U 91018C   13283.43803748  .00014818  00000-0  12206-2 0  7570
2 21151 023.2292 327.9920 4457056 108.1858 008.2063 06.59747082412572
0 INMARSAT 2-F2 R/B(PAM-D)
1 21151U 91018C   13285.40542743  .00012750  00000-0  10549-2 0  7597
2 21151 023.2287 324.9199 4456561 113.5710 001.0979 06.59790425412709
0 INMARSAT 2-F2 R/B(PAM-D)
1 21151U 91018C   13286.63353075  .00012921  00000-0  10725-2 0  7609
2 21151 023.2283 323.0032 4456247 116.9282 038.2152 06.59817795412786
0 INMARSAT 2-F2 R/B(PAM-D)
1 21151U 91018C   13288.12151770  .00016138  00000-0  13430-2 0  7614
2 21151 023.2278 320.6783 4455952 120.9963 332.7955 06.59853970412888
0 INMARSAT 2-F2 R/B(PAM-D)
1 21151U 91018C   13289.18567770  .00014789  00000-0  12284-2 0  7629
2 21151 023.2279 319.0163 4455853 123.9041 340.7522 06.59883193412950
0 INMARSAT 2-F2 R/B(PAM-D)
1 21151U 91018C   13291.14951428  .00013769  00000-0  11339-2 0  7633
2 21151 023.2278 315.9489 4455957 129.2700 326.1934 06.59932109413083
0 INMARSAT 2-F2 R/B(PAM-D)
1 21151U 91018C   13292.21448441  .00013476  00000-0  11022-2 0  7643
2 21151 023.2277 314.2850 4456116 132.1831 336.3666 06.59959187413150
0 INMARSAT 2-F2 R/B(PAM-D)
1 21151U 91018C   13293.28081514  .00014565  00000-0  11852-2 0  7657
2 21151 023.2280 312.6179 4456217 135.1028 349.8768 06.59986203413222
0 INMARSAT 2-F2 R/B(PAM-D)
1 21151U 91018C   13294.34370182  .00016092  00000-0  13020-2 0  7664
2 21151 023.2282 310.9543 4456348 138.0178 355.3080 06.60013263413298
0 INMARSAT 2-F2 R/B(PAM-D)
1 21151U 91018C   13296.15326704  .00016416  00000-0  13209-2 0  7676
2 21151 023.2284 308.1281 4456320 142.9725 335.0983 06.60062577413413
